{"type": "FeatureCollection", "features": [ {"type": "Feature", "properties": {"norad_id": 66799, "name": "STARLINK-36044", "group": "last-30-days", "lat": 25.383135007596273, "lon": -28.652468571266436, "alt_km": 411.75244235354967, "timestamp": "2025-12-24T09:46:29.715656+00:00", "meta": {"OBJECT_NAME": "STARLINK-36044", "OBJECT_ID": "2025-278J", "EPOCH": "2025-12-24T04:00:01.998720", "MEAN_MOTION": 15.50592944, "ECCENTRICITY": 0.0001651, "INCLINATION": 43, "RA_OF_ASC_NODE": 183.3641, "ARG_OF_PERICENTER": 265.9908, "MEAN_ANOMALY": 330.3527, "EPHEMERIS_TYPE": 0, "CLASSIFICATION_TYPE": "U", "NORAD_CAT_ID": 66799, "ELEMENT_SET_NO": 999, "REV_AT_EPOCH": 479, "BSTAR": -0.0013282, "MEAN_MOTION_DOT": -0.00077531, "MEAN_MOTION_DDOT": 0}, "tle": {"line1": "1 66799U 25278J   25358.16668980 -.00077531  00000+0 -13282-2 0  9990", "line2": "2 66799  43.0000 183.3641 0001651 265.9908 330.3527 15.50592944  4791"}}, "geometry": {"type": "Point", "coordinates": [-28.652468571266436, 25.383135007596273]}}, {"type": "Feature", "properties": {"norad_id": 66800, "name": "STARLINK-35996", "group": "last-30-days", "lat": 23.10026917198681, "lon": -25.294165344006963, "alt_km": 412.12307703954866, "timestamp": "2025-12-24T09:46:29.715666+00:00", "meta": {"OBJECT_NAME": "STARLINK-35996", "OBJECT_ID": "2025-278K", "EPOCH": "2025-12-24T04:00:01.998720", "MEAN_MOTION": 15.50529311, "ECCENTRICITY": 0.0001577, "INCLINATION": 43, "RA_OF_ASC_NODE": 183.3546, "ARG_OF_PERICENTER": 270.9011, "MEAN_ANOMALY": 329.2956, "EPHEMERIS_TYPE": 0, "CLASSIFICATION_TYPE": "U", "NORAD_CAT_ID": 66800, "ELEMENT_SET_NO": 999, "REV_AT_EPOCH": 458, "BSTAR": 0.00060492, "MEAN_MOTION_DOT": 0.00035243, "MEAN_MOTION_DDOT": 0}, "tle": {"line1": "1 66800U 25278K   25358.16668980  .00035243  00000+0  60492-3 0  9991", "line2": "2 66800  43.0000 183.3546 0001577 270.9011 329.2956 15.50529311  4584"}}, "geometry": {"type": "Point", "coordinates": [-25.294165344006963, 23.10026917198681]}}, {"type": "Feature", "properties": {"norad_id": 66801, "name": "STARLINK-36080", "group": "last-30-days", "lat": 17.095439742211028, "lon": -17.350153334346615, "alt_km": 412.9363898357178, "timestamp": "2025-12-24T09:46:29.715677+00:00", "meta": {"OBJECT_NAME": "STARLINK-36080", "OBJECT_ID": "2025-278L", "EPOCH": "2025-12-24T04:00:01.998720", "MEAN_MOTION": 15.50604857, "ECCENTRICITY": 0.000209, "INCLINATION": 43, "RA_OF_ASC_NODE": 183.3291, "ARG_OF_PERICENTER": 265.7827, "MEAN_ANOMALY": 343.9648, "EPHEMERIS_TYPE": 0, "CLASSIFICATION_TYPE": "U", "NORAD_CAT_ID": 66801, "ELEMENT_SET_NO": 999, "REV_AT_EPOCH": 479, "BSTAR": -0.0014613, "MEAN_MOTION_DOT": -0.00085225, "MEAN_MOTION_DDOT": 0}, "tle": {"line1": "1 66801U 25278L   25358.16668980 -.00085225  00000+0 -14613-2 0  9992", "line2": "2 66801  43.0000 183.3291 0002090 265.7827 343.9648 15.50604857  4793"}}, "geometry": {"type": "Point", "coordinates": [-17.350153334346615, 17.095439742211028]}}, {"type": "Feature", "properties": {"norad_id": 66802, "name": "STARLINK-35604", "group": "last-30-days", "lat": 24.253526926317925, "lon": -26.962789926939227, "alt_km": 412.08145814347154, "timestamp": "2025-12-24T09:46:29.715687+00:00", "meta": {"OBJECT_NAME": "STARLINK-35604", "OBJECT_ID": "2025-278M", "EPOCH": "2025-12-24T04:00:01.998720", "MEAN_MOTION": 15.50595485, "ECCENTRICITY": 0.0002031, "INCLINATION": 42.9999, "RA_OF_ASC_NODE": 183.3587, "ARG_OF_PERICENTER": 268.3421, "MEAN_ANOMALY": 329.9082, "EPHEMERIS_TYPE": 0, "CLASSIFICATION_TYPE": "U", "NORAD_CAT_ID": 66802, "ELEMENT_SET_NO": 999, "REV_AT_EPOCH": 479, "BSTAR": -0.0012294, "MEAN_MOTION_DOT": -0.00071855, "MEAN_MOTION_DDOT": 0}, "tle": {"line1": "1 66802U 25278M   25358.16668980 -.00071855  00000+0 -12294-2 0  9990", "line2": "2 66802  42.9999 183.3587 0002031 268.3421 329.9082 15.50595485  4793"}}, "geometry": {"type": "Point", "coordinates": [-26.962789926939227, 24.253526926317925]}}, {"type": "Feature", "properties": {"norad_id": 66803, "name": "STARLINK-35565", "group": "last-30-days", "lat": 22.88397036569948, "lon": -24.98846445405211, "alt_km": 417.9362328038751, "timestamp": "2025-12-24T09:46:29.715697+00:00", "meta": {"OBJECT_NAME": "STARLINK-35565", "OBJECT_ID": "2025-278N", "EPOCH": "2025-12-24T04:00:01.998720", "MEAN_MOTION": 15.49737323, "ECCENTRICITY": 0.0001724, "INCLINATION": 42.9999, "RA_OF_ASC_NODE": 183.3498, "ARG_OF_PERICENTER": 262.4212, "MEAN_ANOMALY": 339.3222, "EPHEMERIS_TYPE": 0, "CLASSIFICATION_TYPE": "U", "NORAD_CAT_ID": 66803, "ELEMENT_SET_NO": 999, "REV_AT_EPOCH": 488, "BSTAR": -0.042002, "MEAN_MOTION_DOT": -0.02120666, "MEAN_MOTION_DDOT": 0}, "tle": {"line1": "1 66803U 25278N   25358.16668980 -.02120666  00000+0 -42002-1 0  9997", "line2": "2 66803  42.9999 183.3498 0001724 262.4212 339.3222 15.49737323  4884"}}, "geometry": {"type": "Point", "coordinates": [-24.98846445405211, 22.88397036569948]}}, {"type": "Feature", "properties": {"norad_id": 66804, "name": "STARLINK-36038", "group": "last-30-days", "lat": 21.142240477326126, "lon": -22.58051379024658, "alt_km": 415.916658803244, "timestamp": "2025-12-24T09:46:29.715709+00:00", "meta": {"OBJECT_NAME": "STARLINK-36038", "OBJECT_ID": "2025-278P", "EPOCH": "2025-12-24T04:00:01.998720", "MEAN_MOTION": 15.50360035, "ECCENTRICITY": 0.0001149, "INCLINATION": 42.9999, "RA_OF_ASC_NODE": 183.3449, "ARG_OF_PERICENTER": 279.9524, "MEAN_ANOMALY": 324.0048, "EPHEMERIS_TYPE": 0, "CLASSIFICATION_TYPE": "U", "NORAD_CAT_ID": 66804, "ELEMENT_SET_NO": 999, "REV_AT_EPOCH": 479, "BSTAR": -0.03515, "MEAN_MOTION_DOT": -0.01813041, "MEAN_MOTION_DDOT": 0}, "tle": {"line1": "1 66804U 25278P   25358.16668980 -.01813041  00000+0 -35150-1 0  9999", "line2": "2 66804  42.9999 183.3449 0001149 279.9524 324.0048 15.50360035  4792"}}, "geometry": {"type": "Point", "coordinates": [-22.58051379024658, 21.142240477326126]}}, {"type": "Feature", "properties": {"norad_id": 66805, "name": "STARLINK-36049", "group": "last-30-days", "lat": 18.329980492869442, "lon": -18.89902031133153, "alt_km": 412.7406687985422, "timestamp": "2025-12-24T09:46:29.715721+00:00", "meta": {"OBJECT_NAME": "STARLINK-36049", "OBJECT_ID": "2025-278Q", "EPOCH": "2025-12-24T04:00:01.998720", "MEAN_MOTION": 15.50600267, "ECCENTRICITY": 0.0002259, "INCLINATION": 42.9999, "RA_OF_ASC_NODE": 183.3346, "ARG_OF_PERICENTER": 263.8158, "MEAN_ANOMALY": 344.0028, "EPHEMERIS_TYPE": 0, "CLASSIFICATION_TYPE": "U", "NORAD_CAT_ID": 66805, "ELEMENT_SET_NO": 999, "REV_AT_EPOCH": 479, "BSTAR": -0.00078343, "MEAN_MOTION_DOT": -0.00046071, "MEAN_MOTION_DDOT": 0}, "tle": {"line1": "1 66805U 25278Q   25358.16668980 -.00046071  00000+0 -78343-3 0  9993", "line2": "2 66805  42.9999 183.3346 0002259 263.8158 344.0028 15.50600267  4791"}}, "geometry": {"type": "Point", "coordinates": [-18.89902031133153, 18.329980492869442]}}, {"type": "Feature", "properties": {"norad_id": 66806, "name": "STARLINK-36069", "group": "last-30-days", "lat": 19.5400160548782, "lon": -20.455395632407544, "alt_km": 412.75930536370015, "timestamp": "2025-12-24T09:46:29.715731+00:00", "meta": {"OBJECT_NAME": "STARLINK-36069", "OBJECT_ID": "2025-278R", "EPOCH": "2025-12-24T04:00:01.998720", "MEAN_MOTION": 15.50602241, "ECCENTRICITY": 0.000213, "INCLINATION": 43, "RA_OF_ASC_NODE": 183.3393, "ARG_OF_PERICENTER": 270.405, "MEAN_ANOMALY": 335.5095, "EPHEMERIS_TYPE": 0, "CLASSIFICATION_TYPE": "U", "NORAD_CAT_ID": 66806, "ELEMENT_SET_NO": 999, "REV_AT_EPOCH": 458, "BSTAR": -0.0014525, "MEAN_MOTION_DOT": -0.00084712, "MEAN_MOTION_DDOT": 0}, "tle": {"line1": "1 66806U 25278R   25358.16668980 -.00084712  00000+0 -14525-2 0  9999", "line2": "2 66806  43.0000 183.3393 0002130 270.4050 335.5095 15.50602241  4582"}}, "geometry": {"type": "Point", "coordinates": [-20.455395632407544, 19.5400160548782]}}, {"type": "Feature", "properties": {"norad_id": 66807, "name": "STARLINK-36000", "group": "last-30-days", "lat": 15.852314418324948, "lon": -15.824061846678525, "alt_km": 413.03920794146416, "timestamp": "2025-12-24T09:46:29.715742+00:00", "meta": {"OBJECT_NAME": "STARLINK-36000", "OBJECT_ID": "2025-278S", "EPOCH": "2025-12-24T04:00:01.998720", "MEAN_MOTION": 15.50614059, "ECCENTRICITY": 0.0001709, "INCLINATION": 43.0001, "RA_OF_ASC_NODE": 183.3252, "ARG_OF_PERICENTER": 268.3317, "MEAN_ANOMALY": 343.3289, "EPHEMERIS_TYPE": 0, "CLASSIFICATION_TYPE": "U", "NORAD_CAT_ID": 66807, "ELEMENT_SET_NO": 999, "REV_AT_EPOCH": 485, "BSTAR": -0.0017505, "MEAN_MOTION_DOT": -0.0010184, "MEAN_MOTION_DDOT": 0}, "tle": {"line1": "1 66807U 25278S   25358.16668980 -.00101840  00000+0 -17505-2 0  9993", "line2": "2 66807  43.0001 183.3252 0001709 268.3317 343.3289 15.50614059  4853"}}, "geometry": {"type": "Point", "coordinates": [-15.824061846678525, 15.852314418324948]}}, {"type": "Feature", "properties": {"norad_id": 66808, "name": "STARLINK-36071", "group": "last-30-days", "lat": 14.603612438065767, "lon": -14.323704600059422, "alt_km": 413.25453156318326, "timestamp": "2025-12-24T09:46:29.715751+00:00", "meta": {"OBJECT_NAME": "STARLINK-36071", "OBJECT_ID": "2025-278T", "EPOCH": "2025-12-24T04:00:01.998720", "MEAN_MOTION": 15.50609419, "ECCENTRICITY": 0.0001583, "INCLINATION": 43, "RA_OF_ASC_NODE": 183.3205, "ARG_OF_PERICENTER": 273.9534, "MEAN_ANOMALY": 339.6205, "EPHEMERIS_TYPE": 0, "CLASSIFICATION_TYPE": "U", "NORAD_CAT_ID": 66808, "ELEMENT_SET_NO": 999, "REV_AT_EPOCH": 479, "BSTAR": -0.0015181, "MEAN_MOTION_DOT": -0.00088496, "MEAN_MOTION_DDOT": 0}, "tle": {"line1": "1 66808U 25278T   25358.16668980 -.00088496  00000+0 -15181-2 0  9993", "line2": "2 66808  43.0000 183.3205 0001583 273.9534 339.6205 15.50609419  4797"}}, "geometry": {"type": "Point", "coordinates": [-14.323704600059422, 14.603612438065767]}}]}